{
  "type": "FeatureCollection",
  "features": [
    {
      "type": "Feature",
      "properties": {
        "norad_id": 64694,
        "name": "GOSAT-GW (IBUKI GW)",
        "group": "resource",
        "lat": -15.300772448282231,
        "lon": -61.36449451850813,
        "alt_km": 673.7218266824757,
        "timestamp": "2025-12-27T03:58:43.836008+00:00",
        "meta_object_name": "GOSAT-GW (IBUKI GW)",
        "meta_object_id": "2025-141A",
        "meta_epoch": "2025-12-26T19:52:02.578368",
        "meta_mean_motion": 14.67563742,
        "meta_eccentricity": 0.0001423,
        "meta_inclination": 98.0441,
        "meta_ra_of_asc_node": 296.0863,
        "meta_arg_of_pericenter": 82.0688,
        "meta_mean_anomaly": 278.0678,
        "meta_ephemeris_type": 0,
        "meta_classification_type": "U",
        "meta_norad_cat_id": 64694,
        "meta_element_set_no": 999,
        "meta_rev_at_epoch": 2656,
        "meta_bstar": 0.00020393,
        "meta_mean_motion_dot": 1.109e-05,
        "meta_mean_motion_ddot": 0,
        "tle_line1": "1 64694U 25141A   25360.82780762  .00001109  00000+0  20393-3 0  9998",
        "tle_line2": "2 64694  98.0441 296.0863 0001423  82.0688 278.0678 14.67563742 26565"
      },
      "geometry": {
        "type": "Point",
        "coordinates": [
          -61.36449451850813,
          -15.300772448282231
        ]
      }
    },
    {
      "type": "Feature",
      "properties": {
        "norad_id": 64876,
        "name": "IONOSFERA-M 3",
        "group": "resource",
        "lat": 62.751031478558275,
        "lon": 159.67191696341177,
        "alt_km": 814.1030478776747,
        "timestamp": "2025-12-27T03:58:43.836017+00:00",
        "meta_object_name": "IONOSFERA-M 3",
        "meta_object_id": "2025-155A",
        "meta_epoch": "2025-12-26T20:40:41.085696",
        "meta_mean_motion": 14.21444489,
        "meta_eccentricity": 0.0001775,
        "meta_inclination": 98.5802,
        "meta_ra_of_asc_node": 322.3293,
        "meta_arg_of_pericenter": 36.8839,
        "meta_mean_anomaly": 323.2461,
        "meta_ephemeris_type": 0,
        "meta_classification_type": "U",
        "meta_norad_cat_id": 64876,
        "meta_element_set_no": 999,
        "meta_rev_at_epoch": 2192,
        "meta_bstar": 6.6863e-05,
        "meta_mean_motion_dot": 1.03e-06,
        "meta_mean_motion_ddot": 0,
        "tle_line1": "1 64876U 25155A   25360.86158664  .00000103  00000+0  66863-4 0  9995",
        "tle_line2": "2 64876  98.5802 322.3293 0001775  36.8839 323.2461 14.21444489 21922"
      },
      "geometry": {
        "type": "Point",
        "coordinates": [
          159.67191696341177,
          62.751031478558275
        ]
      }
    },
    {
      "type": "Feature",
      "properties": {
        "norad_id": 64877,
        "name": "IONOSFERA-M 4",
        "group": "resource",
        "lat": -62.20343985157622,
        "lon": -20.813311281311705,
        "alt_km": 827.9681519940332,
        "timestamp": "2025-12-27T03:58:43.836026+00:00",
        "meta_object_name": "IONOSFERA-M 4",
        "meta_object_id": "2025-155B",
        "meta_epoch": "2025-12-26T21:31:09.872256",
        "meta_mean_motion": 14.21445668,
        "meta_eccentricity": 0.0001228,
        "meta_inclination": 98.5802,
        "meta_ra_of_asc_node": 322.2827,
        "meta_arg_of_pericenter": 50.6464,
        "meta_mean_anomaly": 309.4822,
        "meta_ephemeris_type": 0,
        "meta_classification_type": "U",
        "meta_norad_cat_id": 64877,
        "meta_element_set_no": 999,
        "meta_rev_at_epoch": 2192,
        "meta_bstar": 6.7043e-05,
        "meta_mean_motion_dot": 1.04e-06,
        "meta_mean_motion_ddot": 0,
        "tle_line1": "1 64877U 25155B   25360.89664204  .00000104  00000+0  67043-4 0  9993",
        "tle_line2": "2 64877  98.5802 322.2827 0001228  50.6464 309.4822 14.21445668 21923"
      },
      "geometry": {
        "type": "Point",
        "coordinates": [
          -20.813311281311705,
          -62.20343985157622
        ]
      }
    },
    {
      "type": "Feature",
      "properties": {
        "norad_id": 64899,
        "name": "MICROCARB",
        "group": "resource",
        "lat": -16.19199644251367,
        "lon": -106.06182009284346,
        "alt_km": 660.2828531781752,
        "timestamp": "2025-12-27T03:58:43.836035+00:00",
        "meta_object_name": "MICROCARB",
        "meta_object_id": "2025-156A",
        "meta_epoch": "2025-12-26T18:56:07.116864",
        "meta_mean_motion": 14.72079618,
        "meta_eccentricity": 0.0017671,
        "meta_inclination": 98.0009,
        "meta_ra_of_asc_node": 75.9082,
        "meta_arg_of_pericenter": 102.7398,
        "meta_mean_anomaly": 257.5786,
        "meta_ephemeris_type": 0,
        "meta_classification_type": "U",
        "meta_norad_cat_id": 64899,
        "meta_element_set_no": 999,
        "meta_rev_at_epoch": 2260,
        "meta_bstar": 0.00013152,
        "meta_mean_motion_dot": 7.79e-06,
        "meta_mean_motion_ddot": 0,
        "tle_line1": "1 64899U 25156A   25360.78897126  .00000779  00000+0  13152-3 0  9996",
        "tle_line2": "2 64899  98.0009  75.9082 0017671 102.7398 257.5786 14.72079618 22602"
      },
      "geometry": {
        "type": "Point",
        "coordinates": [
          -106.06182009284346,
          -16.19199644251367
        ]
      }
    },
    {
      "type": "Feature",
      "properties": {
        "norad_id": 64900,
        "name": "CO3D 3",
        "group": "resource",
        "lat": -32.7736788547288,
        "lon": -107.49566854635457,
        "alt_km": 512.2133760808147,
        "timestamp": "2025-12-27T03:58:43.836045+00:00",
        "meta_object_name": "CO3D 3",
        "meta_object_id": "2025-156B",
        "meta_epoch": "2025-12-26T20:43:33.409632",
        "meta_mean_motion": 15.20209921,
        "meta_eccentricity": 0.0001347,
        "meta_inclination": 97.4343,
        "meta_ra_of_asc_node": 77.0288,
        "meta_arg_of_pericenter": 64.1389,
        "meta_mean_anomaly": 295.9985,
        "meta_ephemeris_type": 0,
        "meta_classification_type": "U",
        "meta_norad_cat_id": 64900,
        "meta_element_set_no": 999,
        "meta_rev_at_epoch": 2335,
        "meta_bstar": 1.9785e-05,
        "meta_mean_motion_dot": 3.61e-06,
        "meta_mean_motion_ddot": 0,
        "tle_line1": "1 64900U 25156B   25360.86358113  .00000361  00000+0  19785-4 0  9992",
        "tle_line2": "2 64900  97.4343  77.0288 0001347  64.1389 295.9985 15.20209921 23350"
      },
      "geometry": {
        "type": "Point",
        "coordinates": [
          -107.49566854635457,
          -32.7736788547288
        ]
      }
    },
    {
      "type": "Feature",
      "properties": {
        "norad_id": 64901,
        "name": "CO3D 4",
        "group": "resource",
        "lat": -31.913069995106408,
        "lon": -107.3379851300539,
        "alt_km": 510.9627130732106,
        "timestamp": "2025-12-27T03:58:43.836055+00:00",
        "meta_object_name": "CO3D 4",
        "meta_object_id": "2025-156C",
        "meta_epoch": "2025-12-26T20:43:47.134272",
        "meta_mean_motion": 15.2020323,
        "meta_eccentricity": 0.0001432,
        "meta_inclination": 97.4337,
        "meta_ra_of_asc_node": 77.0283,
        "meta_arg_of_pericenter": 147.4281,
        "meta_mean_anomaly": 212.7043,
        "meta_ephemeris_type": 0,
        "meta_classification_type": "U",
        "meta_norad_cat_id": 64901,
        "meta_element_set_no": 999,
        "meta_rev_at_epoch": 2335,
        "meta_bstar": 0.00029792,
        "meta_mean_motion_dot": 6.387e-05,
        "meta_mean_motion_ddot": 0,
        "tle_line1": "1 64901U 25156C   25360.86373998  .00006387  00000+0  29792-3 0  9993",
        "tle_line2": "2 64901  97.4337  77.0283 0001432 147.4281 212.7043 15.20203230 23359"
      },
      "geometry": {
        "type": "Point",
        "coordinates": [
          -107.3379851300539,
          -31.913069995106408
        ]
      }
    },
    {
      "type": "Feature",
      "properties": {
        "norad_id": 64902,
        "name": "CO3D 2",
        "group": "resource",
        "lat": 34.07191391931456,
        "lon": 72.15822194686062,
        "alt_km": 502.5911091080252,
        "timestamp": "2025-12-27T03:58:43.836064+00:00",
        "meta_object_name": "CO3D 2",
        "meta_object_id": "2025-156D",
        "meta_epoch": "2025-12-26T19:55:45.619104",
        "meta_mean_motion": 15.20209211,
        "meta_eccentricity": 8.12e-05,
        "meta_inclination": 97.4339,
        "meta_ra_of_asc_node": 76.894,
        "meta_arg_of_pericenter": 61.4252,
        "meta_mean_anomaly": 298.7065,
        "meta_ephemeris_type": 0,
        "meta_classification_type": "U",
        "meta_norad_cat_id": 64902,
        "meta_element_set_no": 999,
        "meta_rev_at_epoch": 2334,
        "meta_bstar": 0.00023633,
        "meta_mean_motion_dot": 5.053e-05,
        "meta_mean_motion_ddot": 0,
        "tle_line1": "1 64902U 25156D   25360.83038911  .00005053  00000+0  23633-3 0  9991",
        "tle_line2": "2 64902  97.4339  76.8940 0000812  61.4252 298.7065 15.20209211 23345"
      },
      "geometry": {
        "type": "Point",
        "coordinates": [
          72.15822194686062,
          34.07191391931456
        ]
      }
    }
  ]
}